{
  "norad_id": 65480,
  "name": "STARLINK-35040",
  "history": [
    {
      "epoch": "2026-03-28T12:03:35.254368",
      "apogee_km": 476.080581092554,
      "perigee_km": 474.32927809586545,
      "latitude_deg": 11.39327069287275,
      "longitude_deg": 56.23917152010836,
      "semi_major_axis_km": 6853.341929594209,
      "eccentricity": 0.00012777,
      "inclination_deg": 53.1592,
      "raan_deg": 170.7956,
      "arg_perigee_deg": 80.2521,
      "mean_anomaly_deg": 279.8624,
      "mean_motion_rev_day": 15.30203396
    }
  ]
}